0 FENGYUN 1C DEB
1 31815U 99025CHD 13280.87612801  .00000011  00000-0  31667-4 0  4321
2 31815 098.9849 304.7999 0060231 355.1734 004.8867 14.09577386328510
0 FENGYUN 1C DEB
1 31815U 99025CHD 13283.28951730  .00000019  00000-0  36066-4 0  4333
2 31815 098.9853 307.2098 0060211 348.6224 011.3548 14.09577777328852
0 FENGYUN 1C DEB
1 31815U 99025CHD 13285.91585509  .00000010  00000-0  30988-4 0  4341
2 31815 098.9853 309.8301 0059876 341.3927 018.5054 14.09577816329229
0 FENGYUN 1C DEB
1 31815U 99025CHD 13288.32924494  .00000007  00000-0  29448-4 0  4355
2 31815 098.9850 312.2373 0059628 334.5964 025.2284 14.09578072329565
0 FENGYUN 1C DEB
1 31815U 99025CHD 13291.31049058  .00000020  00000-0  36665-4 0  4367
2 31815 098.9847 315.2109 0059582 326.2154 033.5256 14.09578841329980
0 FENGYUN 1C DEB
1 31815U 99025CHD 13294.29173647  .00000030  00000-0  42568-4 0  4370
2 31815 098.9836 318.1835 0059294 317.8950 041.7670 14.09579518330408
